[{"OBJECT_NAME":"STARLINK-5654","OBJECT_ID":"2023-013AM","EPOCH":"2026-03-09T22:00:01.999584","MEAN_MOTION":15.11289657,"ECCENTRICITY":0.00012041,"INCLINATION":42.9998,"RA_OF_ASC_NODE":285.8425,"ARG_OF_PERICENTER":309.6832,"MEAN_ANOMALY":152.3677,"EPHEMERIS_TYPE":0,"CLASSIFICATION_TYPE":"U","NORAD_CAT_ID":55366,"ELEMENT_SET_NO":999,"REV_AT_EPOCH":567,"BSTAR":0.0043604859,"MEAN_MOTION_DOT":0.00075271,"MEAN_MOTION_DDOT":0},{"OBJECT_NAME":"ARIANE 6 R\/B","OBJECT_ID":"2024-128E","EPOCH":"2026-03-09T18:39:06.277536","MEAN_MOTION":15.00137067,"ECCENTRICITY":0.00536237,"INCLINATION":62.0121,"RA_OF_ASC_NODE":216.5937,"ARG_OF_PERICENTER":115.5687,"MEAN_ANOMALY":245.096,"EPHEMERIS_TYPE":0,"CLASSIFICATION_TYPE":"U","NORAD_CAT_ID":60239,"ELEMENT_SET_NO":999,"REV_AT_EPOCH":9111,"BSTAR":0.00020908474,"MEAN_MOTION_DOT":2.489e-5,"MEAN_MOTION_DDOT":0}]
